NORAD_CAT_ID,OBJECT_NAME,OBJECT_TYPE,EPOCH,MEAN_MOTION,ECCENTRICITY,INCLINATION,RA_OF_ASC_NODE,ARG_OF_PERICENTER,MEAN_ANOMALY,BSTAR,MEAN_MOTION_DOT,MEAN_MOTION_DDOT,TLE_LINE0,TLE_LINE1,TLE_LINE2,SEMIMAJOR_AXIS,PERIOD,APOGEE,PERIGEE,DECAYED
52470.0,STARLINK-3859,PAYLOAD,2023-09-04 05:13:50,15.08832108,0.000172,53.217,217.8108,87.1806,272.9383,-8.4932e-05,-1.639e-05,0.0,0 STARLINK-3859,1 52470U 22049V   23247.21794120 -.00001639  00000-0 -84932-4 0  9990,2 52470  53.2170 217.8108 0001720  87.1806 272.9383 15.08832108 73746,6917.905,95.438,540.959,538.58,0.0
52470.0,STARLINK-3859,PAYLOAD,2023-09-05 05:04:36,15.0883192,0.0001426,53.2173,213.3523,83.7877,276.3277,0.00022777,3.338e-05,0.0,0 STARLINK-3859,1 52470U 22049V   23248.21153717  .00003338  00000-0  22777-3 0  9996,2 52470  53.2173 213.3523 0001426  83.7877 276.3277 15.08831920 74050,6917.905,95.438,540.757,538.784,0.0
52470.0,STARLINK-3859,PAYLOAD,2023-09-05 08:15:23,15.08818601,0.000153,53.2173,212.7574,85.8487,274.268,0.0004856,7.444e-05,0.0,0 STARLINK-3859,1 52470U 22049V   23248.34402209  .00007444  00000-0  48560-3 0  9993,2 52470  53.2173 212.7574 0001530  85.8487 274.2680 15.08818601 74073,6917.946,95.439,540.869,538.752,0.0
52470.0,STARLINK-3859,PAYLOAD,2023-09-06 09:41:33,15.08839437,0.0001285,53.2173,207.9986,84.5212,275.5927,0.00019646,2.84e-05,0.0,0 STARLINK-3859,1 52470U 22049V   23249.40385828  .00002840  00000-0  19646-3 0  9996,2 52470  53.2173 207.9986 0001285  84.5212 275.5927 15.08839437 74231,6917.882,95.438,540.636,538.858,0.0
52470.0,STARLINK-3859,PAYLOAD,2023-09-07 06:21:34,15.08843398,0.0001404,53.2186,204.1329,80.4471,279.668,3.0038e-05,1.9e-06,0.0,0 STARLINK-3859,1 52470U 22049V   23250.26498014  .00000190  00000-0  30038-4 0  9999,2 52470  53.2186 204.1329 0001404  80.4471 279.6680 15.08843398 74209,6917.87,95.437,540.706,538.764,0.0
52470.0,STARLINK-3859,PAYLOAD,2023-09-08 03:01:34,15.08845327,0.0001476,53.217,200.2674,91.6261,268.49,0.00014167,1.968e-05,0.0,0 STARLINK-3859,1 52470U 22049V   23251.12609433  .00001968  00000-0  14167-3 0  9992,2 52470  53.2170 200.2674 0001476  91.6261 268.4900 15.08845327 74498,6917.864,95.437,540.75,538.708,0.0
52470.0,STARLINK-3859,PAYLOAD,2023-09-08 20:30:49,15.08838222,0.0001472,53.2166,196.9975,89.1421,270.974,6.6863e-05,7.76e-06,0.0,0 STARLINK-3859,1 52470U 22049V   23251.85474144  .00000776  00000-0  66863-4 0  9998,2 52470  53.2166 196.9975 0001472  89.1421 270.9740 15.08838222 74445,6917.886,95.438,540.769,538.733,0.0
52470.0,STARLINK-3859,PAYLOAD,2023-09-09 02:52:22,15.08841054,0.0001362,53.2171,195.8083,77.5842,282.5303,5.8901e-05,6.5e-06,0.0,0 STARLINK-3859,1 52470U 22049V   23252.11970057  .00000650  00000-0  58901-4 0  9997,2 52470  53.2171 195.8083 0001362  77.5842 282.5303 15.08841054 74648,6917.877,95.437,540.684,538.8,0.0
52470.0,STARLINK-3859,PAYLOAD,2023-09-09 06:03:08,15.08842941,0.0001325,53.217,195.2126,80.1117,280.0025,6.889e-05,8.09e-06,0.0,0 STARLINK-3859,1 52470U 22049V   23252.25217858  .00000809  00000-0  68890-4 0  9999,2 52470  53.2170 195.2126 0001325  80.1117 280.0025 15.08842941 74508,6917.871,95.437,540.653,538.82,0.0
52470.0,STARLINK-3859,PAYLOAD,2023-09-10 05:53:54,15.08850327,0.0001225,53.2177,190.7509,99.2698,260.8432,6.2734e-05,7.11e-06,0.0,0 STARLINK-3859,1 52470U 22049V   23253.24577263  .00000711  00000-0  62734-4 0  9991,2 52470  53.2177 190.7509 0001225  99.2698 260.8432 15.08850327 74813,6917.849,95.437,540.561,538.866,0.0
52470.0,STARLINK-3859,PAYLOAD,2023-09-11 02:33:56,15.08834171,0.0001307,53.2179,186.8841,107.2093,252.9042,-1.5385e-05,-5.33e-06,0.0,0 STARLINK-3859,1 52470U 22049V   23254.10690715 -.00000533  00000-0 -15385-4 0  9999,2 52470  53.2179 186.8841 0001307 107.2093 252.9042 15.08834171 74942,6917.898,95.438,540.667,538.859,0.0
52470.0,STARLINK-3859,PAYLOAD,2023-09-11 12:06:15,15.08841549,0.000111,53.218,185.1024,85.3853,274.7266,-1.7568e-05,-5.67e-06,0.0,0 STARLINK-3859,1 52470U 22049V   23254.50434346 -.00000567  00000-0 -17568-4 0  9991,2 52470  53.2180 185.1024 0001110  85.3853 274.7266 15.08841549 74847,6917.876,95.437,540.509,538.973,0.0
52470.0,STARLINK-3859,PAYLOAD,2023-09-12 05:35:29,15.08847058,0.0001145,53.2179,181.8306,95.2798,264.8325,5.5226e-05,5.91e-06,0.0,0 STARLINK-3859,1 52470U 22049V   23255.23297901  .00000591  00000-0  55226-4 0  9994,2 52470  53.2179 181.8306 0001145  95.2798 264.8325 15.08847058 74956,6917.859,95.437,540.516,538.932,0.0
52470.0,STARLINK-3859,PAYLOAD,2023-09-12 18:18:35,15.08835147,0.0001141,53.2175,179.4525,87.9308,272.1815,0.00012784,1.747e-05,0.0,0 STARLINK-3859,1 52470U 22049V   23255.76290630  .00001747  00000-0  12784-3 0  9999,2 52470  53.2175 179.4525 0001141  87.9308 272.1815 15.08835147 75198,6917.895,95.438,540.55,538.971,0.0
52470.0,STARLINK-3859,PAYLOAD,2023-09-13 02:15:30,15.08845825,0.0001384,53.2183,177.9656,85.4164,274.6986,0.00019455,2.81e-05,0.0,0 STARLINK-3859,1 52470U 22049V   23256.09410024  .00002810  00000-0  19455-3 0  9991,2 52470  53.2183 177.9656 0001384  85.4164 274.6986 15.08845825 75243,6917.863,95.437,540.685,538.77,0.0
52470.0,STARLINK-3859,PAYLOAD,2023-09-13 03:50:53,15.0884924,0.0001414,53.2186,177.668,91.3128,268.8026,0.00022555,3.304e-05,0.0,0 STARLINK-3859,1 52470U 22049V   23256.16033798  .00003304  00000-0  22555-3 0  9992,2 52470  53.2186 177.6680 0001414  91.3128 268.8026 15.08849240 75098,6917.852,95.437,540.695,538.739,0.0
52470.0,STARLINK-3859,PAYLOAD,2023-09-14 05:17:03,15.08849404,0.0001344,53.2174,172.9099,96.3325,263.782,0.00019389,2.8e-05,0.0,0 STARLINK-3859,1 52470U 22049V   23257.22017668  .00002800  00000-0  19389-3 0  9999,2 52470  53.2174 172.9099 0001344  96.3325 263.7820 15.08849404 75417,6917.852,95.437,540.646,538.787,0.0
52470.0,STARLINK-3859,PAYLOAD,2023-09-15 03:32:27,15.08843719,0.0001449,53.2175,168.7458,97.0755,263.0402,6.7328e-06,-1.81e-06,0.0,0 STARLINK-3859,1 52470U 22049V   23258.14754101 -.00000181  00000-0  67328-5 0  9990,2 52470  53.2175 168.7458 0001449  97.0755 263.0402 15.08843719 75558,6917.869,95.437,540.736,538.732,0.0
52470.0,STARLINK-3859,PAYLOAD,2023-09-16 03:23:14,15.0885008,0.0001313,53.2174,164.2864,96.428,263.6861,6.779e-05,7.91e-06,0.0,0 STARLINK-3859,1 52470U 22049V   23259.14113912  .00000791  00000-0  67790-4 0  9998,2 52470  53.2174 164.2864 0001313  96.4280 263.6861 15.08850080 75548,6917.85,95.437,540.623,538.806,0.0
52470.0,STARLINK-3859,PAYLOAD,2023-09-16 17:41:43,15.088296,0.0001432,53.2181,161.611,87.3913,272.7243,8.9002e-05,1.128e-05,0.0,0 STARLINK-3859,1 52470U 22049V   23259.73731464  .00001128  00000-0  89002-4 0  9996,2 52470  53.2181 161.6110 0001432  87.3913 272.7243 15.08829600 75791,6917.912,95.438,540.768,538.787,0.0
52470.0,STARLINK-3859,PAYLOAD,2023-09-17 03:14:02,15.08834649,0.000137,53.2176,159.8261,93.5163,266.5986,1.5705e-05,-3.8e-07,0.0,0 STARLINK-3859,1 52470U 22049V   23260.13475623 -.00000038  00000-0  15705-4 0  9993,2 52470  53.2176 159.8261 0001370  93.5163 266.5986 15.08834649 75691,6917.897,95.438,540.709,538.814,0.0
52470.0,STARLINK-3859,PAYLOAD,2023-09-17 23:54:02,15.08858497,0.0001336,53.2169,155.9611,89.7533,270.3612,0.00030799,4.62e-05,0.0,0 STARLINK-3859,1 52470U 22049V   23260.99586369  .00004620  00000-0  30799-3 0  9996,2 52470  53.2169 155.9611 0001336  89.7533 270.3612 15.08858497 75987,6917.824,95.436,540.613,538.765,0.0
52470.0,STARLINK-3859,PAYLOAD,2023-09-18 20:34:04,15.08842506,0.0001359,53.2166,152.0966,93.3456,266.7692,0.00022404,3.28e-05,0.0,0 STARLINK-3859,1 52470U 22049V   23261.85699123  .00003280  00000-0  22404-3 0  9990,2 52470  53.2166 152.0966 0001359  93.3456 266.7692 15.08842506 75953,6917.873,95.437,540.678,538.798,0.0
52470.0,STARLINK-3859,PAYLOAD,2023-09-19 01:20:13,15.08852948,0.0001352,53.2168,151.2037,87.9135,272.2012,0.0003228,4.855e-05,0.0,0 STARLINK-3859,1 52470U 22049V   23262.05570711  .00004855  00000-0  32280-3 0  9996,2 52470  53.2168 151.2037 0001352  87.9135 272.2012 15.08852948 76142,6917.841,95.437,540.641,538.771,0.0
52470.0,STARLINK-3859,PAYLOAD,2023-09-20 02:46:22,15.08864708,0.0001393,53.2173,146.4455,86.8852,273.23,0.00040583,6.181e-05,0.0,0 STARLINK-3859,1 52470U 22049V   23263.11553433  .00006181  00000-0  40583-3 0  9995,2 52470  53.2173 146.4455 0001393  86.8852 273.2300 15.08864708 76303,6917.805,95.436,540.634,538.706,0.0
52470.0,STARLINK-3859,PAYLOAD,2023-09-20 09:07:55,15.08833241,0.0001932,53.2165,145.255,93.894,266.2273,-0.00017218,-3.027e-05,0.0,0 STARLINK-3859,1 52470U 22049V   23263.38050668 -.00003027  00000-0 -17218-3 0  9993,2 52470  53.2165 145.2550 0001932  93.8940 266.2273 15.08833241 76345,6917.901,95.438,541.103,538.43,0.0
52470.0,STARLINK-3859,PAYLOAD,2023-09-20 21:51:01,15.08816062,0.0001663,53.217,142.8801,92.193,267.9252,-0.00040662,-6.749e-05,0.0,0 STARLINK-3859,1 52470U 22049V   23263.91043826 -.00006749  00000-0 -40662-3 0  9993,2 52470  53.2170 142.8801 0001663  92.1930 267.9252 15.08816062 76263,6917.954,95.439,540.969,538.668,0.0
52470.0,STARLINK-3859,PAYLOAD,2023-09-21 01:01:48,15.08817965,0.0001677,53.2173,142.2851,91.5011,268.6174,-0.00033317,-5.583e-05,0.0,0 STARLINK-3859,1 52470U 22049V   23264.04291911 -.00005583  00000-0 -33317-3 0  9992,2 52470  53.2173 142.2851 0001677  91.5011 268.6174 15.08817965 76447,6917.948,95.439,540.973,538.653,0.0
52470.0,STARLINK-3859,PAYLOAD,2023-09-21 02:37:11,15.08819349,0.0001699,53.2174,141.9865,90.5532,269.5655,-0.00028036,-4.745e-05,0.0,0 STARLINK-3859,1 52470U 22049V   23264.10915942 -.00004745  00000-0 -28036-3 0  9997,2 52470  53.2174 141.9865 0001699  90.5532 269.5655 15.08819349 76295,6917.944,95.439,540.984,538.633,0.0
52470.0,STARLINK-3859,PAYLOAD,2023-09-21 21:41:49,15.08837458,0.0001585,53.2161,138.4179,90.628,269.4894,0.00047876,7.339e-05,0.0,0 STARLINK-3859,1 52470U 22049V   23264.90404348  .00007339  00000-0  47876-3 0  9991,2 52470  53.2161 138.4179 0001585  90.6280 269.4894 15.08837458 76414,6917.888,95.438,540.85,538.657,0.0
